,Zip,City,Latitude,Longitude,Cluster Labels20,Cluster Labels10,Cluster Labels5,1st Most Common Venue,2nd Most Common Venue,3rd Most Common Venue,4th Most Common Venue,5th Most Common Venue,6th Most Common Venue,7th Most Common Venue,8th Most Common Venue,9th Most Common Venue,10th Most Common Venue
125,77289,Houston,29.83399,-95.434241,0,1,0,Pizza Place,Spa,Gas Station,Bank,Park,Salon / Barbershop,Intersection,Discount Store,Mexican Restaurant,Supermarket
127,77216,Houston,29.83399,-95.434241,0,1,0,Pizza Place,Spa,Gas Station,Bank,Park,Salon / Barbershop,Intersection,Discount Store,Mexican Restaurant,Supermarket
130,77217,Houston,29.83399,-95.434241,0,1,0,Pizza Place,Spa,Gas Station,Bank,Park,Salon / Barbershop,Intersection,Discount Store,Mexican Restaurant,Supermarket
131,77263,Houston,29.83399,-95.434241,0,1,0,Pizza Place,Spa,Gas Station,Bank,Park,Salon / Barbershop,Intersection,Discount Store,Mexican Restaurant,Supermarket
137,77293,Houston,29.83399,-95.434241,0,1,0,Pizza Place,Spa,Gas Station,Bank,Park,Salon / Barbershop,Intersection,Discount Store,Mexican Restaurant,Supermarket
144,77203,Houston,29.83399,-95.434241,0,1,0,Pizza Place,Spa,Gas Station,Bank,Park,Salon / Barbershop,Intersection,Discount Store,Mexican Restaurant,Supermarket
146,77212,Houston,29.83399,-95.434241,0,1,0,Pizza Place,Spa,Gas Station,Bank,Park,Salon / Barbershop,Intersection,Discount Store,Mexican Restaurant,Supermarket
147,77291,Houston,29.83399,-95.434241,0,1,0,Pizza Place,Spa,Gas Station,Bank,Park,Salon / Barbershop,Intersection,Discount Store,Mexican Restaurant,Supermarket
148,77275,Houston,29.83399,-95.434241,0,1,0,Pizza Place,Spa,Gas Station,Bank,Park,Salon / Barbershop,Intersection,Discount Store,Mexican Restaurant,Supermarket
149,77253,Houston,29.83399,-95.434241,0,1,0,Pizza Place,Spa,Gas Station,Bank,Park,Salon / Barbershop,Intersection,Discount Store,Mexican Restaurant,Supermarket
150,77228,Houston,29.83399,-95.434241,0,1,0,Pizza Place,Spa,Gas Station,Bank,Park,Salon / Barbershop,Intersection,Discount Store,Mexican Restaurant,Supermarket
151,77255,Houston,29.83399,-95.434241,0,1,0,Pizza Place,Spa,Gas Station,Bank,Park,Salon / Barbershop,Intersection,Discount Store,Mexican Restaurant,Supermarket
153,77208,Houston,29.83399,-95.434241,0,1,0,Pizza Place,Spa,Gas Station,Bank,Park,Salon / Barbershop,Intersection,Discount Store,Mexican Restaurant,Supermarket
155,77241,Houston,29.83399,-95.434241,0,1,0,Pizza Place,Spa,Gas Station,Bank,Park,Salon / Barbershop,Intersection,Discount Store,Mexican Restaurant,Supermarket
156,77315,North Houston,29.83399,-95.434241,0,1,0,Pizza Place,Spa,Gas Station,Bank,Park,Salon / Barbershop,Intersection,Discount Store,Mexican Restaurant,Supermarket
159,77205,Houston,29.83399,-95.434241,0,1,0,Pizza Place,Spa,Gas Station,Bank,Park,Salon / Barbershop,Intersection,Discount Store,Mexican Restaurant,Supermarket
160,77227,Houston,29.83399,-95.434241,0,1,0,Pizza Place,Spa,Gas Station,Bank,Park,Salon / Barbershop,Intersection,Discount Store,Mexican Restaurant,Supermarket
162,77207,Houston,29.83399,-95.434241,0,1,0,Pizza Place,Spa,Gas Station,Bank,Park,Salon / Barbershop,Intersection,Discount Store,Mexican Restaurant,Supermarket
164,77251,Houston,29.83399,-95.434241,0,1,0,Pizza Place,Spa,Gas Station,Bank,Park,Salon / Barbershop,Intersection,Discount Store,Mexican Restaurant,Supermarket
165,77035,Houston,29.654108,-95.47692,0,1,0,Pizza Place,Baseball Field,Salon / Barbershop,Park,Dive Bar,Hardware Store,Discount Store,Mexican Restaurant,Theater,Tennis Court
166,77040,Houston,29.878345,-95.53337,0,1,0,Gas Station,Pizza Place,Liquor Store,Optical Shop,Park,Athletics & Sports,Seafood Restaurant,Thai Restaurant,Housing Development,Breakfast Spot
169,77234,Houston,29.83399,-95.434241,0,1,0,Pizza Place,Spa,Gas Station,Bank,Park,Salon / Barbershop,Intersection,Discount Store,Mexican Restaurant,Supermarket
170,77277,Houston,29.83399,-95.434241,0,1,0,Pizza Place,Spa,Gas Station,Bank,Park,Salon / Barbershop,Intersection,Discount Store,Mexican Restaurant,Supermarket
171,77299,Houston,29.83399,-95.434241,0,1,0,Pizza Place,Spa,Gas Station,Bank,Park,Salon / Barbershop,Intersection,Discount Store,Mexican Restaurant,Supermarket
173,77245,Houston,29.83399,-95.434241,0,1,0,Pizza Place,Spa,Gas Station,Bank,Park,Salon / Barbershop,Intersection,Discount Store,Mexican Restaurant,Supermarket
174,77269,Houston,29.83399,-95.434241,0,1,0,Pizza Place,Spa,Gas Station,Bank,Park,Salon / Barbershop,Intersection,Discount Store,Mexican Restaurant,Supermarket
175,77272,Houston,29.83399,-95.434241,0,1,0,Pizza Place,Spa,Gas Station,Bank,Park,Salon / Barbershop,Intersection,Discount Store,Mexican Restaurant,Supermarket
178,77284,Houston,29.83399,-95.434241,0,1,0,Pizza Place,Spa,Gas Station,Bank,Park,Salon / Barbershop,Intersection,Discount Store,Mexican Restaurant,Supermarket
179,77213,Houston,29.83399,-95.434241,0,1,0,Pizza Place,Spa,Gas Station,Bank,Park,Salon / Barbershop,Intersection,Discount Store,Mexican Restaurant,Supermarket
180,77224,Houston,29.83399,-95.434241,0,1,0,Pizza Place,Spa,Gas Station,Bank,Park,Salon / Barbershop,Intersection,Discount Store,Mexican Restaurant,Supermarket
181,77257,Houston,29.83399,-95.434241,0,1,0,Pizza Place,Spa,Gas Station,Bank,Park,Salon / Barbershop,Intersection,Discount Store,Mexican Restaurant,Supermarket
183,77097,Houston,29.83399,-95.434241,0,1,0,Pizza Place,Spa,Gas Station,Bank,Park,Salon / Barbershop,Intersection,Discount Store,Mexican Restaurant,Supermarket
185,77297,Houston,29.83399,-95.434241,0,1,0,Pizza Place,Spa,Gas Station,Bank,Park,Salon / Barbershop,Intersection,Discount Store,Mexican Restaurant,Supermarket
187,77233,Houston,29.83399,-95.434241,0,1,0,Pizza Place,Spa,Gas Station,Bank,Park,Salon / Barbershop,Intersection,Discount Store,Mexican Restaurant,Supermarket
188,77288,Houston,29.83399,-95.434241,0,1,0,Pizza Place,Spa,Gas Station,Bank,Park,Salon / Barbershop,Intersection,Discount Store,Mexican Restaurant,Supermarket
190,77290,Houston,29.83399,-95.434241,0,1,0,Pizza Place,Spa,Gas Station,Bank,Park,Salon / Barbershop,Intersection,Discount Store,Mexican Restaurant,Supermarket
191,77240,Houston,29.83399,-95.434241,0,1,0,Pizza Place,Spa,Gas Station,Bank,Park,Salon / Barbershop,Intersection,Discount Store,Mexican Restaurant,Supermarket
193,77271,Houston,29.83399,-95.434241,0,1,0,Pizza Place,Spa,Gas Station,Bank,Park,Salon / Barbershop,Intersection,Discount Store,Mexican Restaurant,Supermarket
196,77244,Houston,29.83399,-95.434241,0,1,0,Pizza Place,Spa,Gas Station,Bank,Park,Salon / Barbershop,Intersection,Discount Store,Mexican Restaurant,Supermarket
200,77215,Houston,29.83399,-95.434241,0,1,0,Pizza Place,Spa,Gas Station,Bank,Park,Salon / Barbershop,Intersection,Discount Store,Mexican Restaurant,Supermarket
201,77280,Houston,29.83399,-95.434241,0,1,0,Pizza Place,Spa,Gas Station,Bank,Park,Salon / Barbershop,Intersection,Discount Store,Mexican Restaurant,Supermarket
205,77259,Houston,29.83399,-95.434241,0,1,0,Pizza Place,Spa,Gas Station,Bank,Park,Salon / Barbershop,Intersection,Discount Store,Mexican Restaurant,Supermarket
206,77220,Houston,29.83399,-95.434241,0,1,0,Pizza Place,Spa,Gas Station,Bank,Park,Salon / Barbershop,Intersection,Discount Store,Mexican Restaurant,Supermarket
208,77206,Houston,29.83399,-95.434241,0,1,0,Pizza Place,Spa,Gas Station,Bank,Park,Salon / Barbershop,Intersection,Discount Store,Mexican Restaurant,Supermarket
211,77230,Houston,29.83399,-95.434241,0,1,0,Pizza Place,Spa,Gas Station,Bank,Park,Salon / Barbershop,Intersection,Discount Store,Mexican Restaurant,Supermarket
213,77256,Houston,29.83399,-95.434241,0,1,0,Pizza Place,Spa,Gas Station,Bank,Park,Salon / Barbershop,Intersection,Discount Store,Mexican Restaurant,Supermarket
216,77261,Houston,29.83399,-95.434241,0,1,0,Pizza Place,Spa,Gas Station,Bank,Park,Salon / Barbershop,Intersection,Discount Store,Mexican Restaurant,Supermarket
217,77204,Houston,29.83399,-95.434241,0,1,0,Pizza Place,Spa,Gas Station,Bank,Park,Salon / Barbershop,Intersection,Discount Store,Mexican Restaurant,Supermarket
218,77223,Houston,29.83399,-95.434241,0,1,0,Pizza Place,Spa,Gas Station,Bank,Park,Salon / Barbershop,Intersection,Discount Store,Mexican Restaurant,Supermarket
222,77265,Houston,29.83399,-95.434241,0,1,0,Pizza Place,Spa,Gas Station,Bank,Park,Salon / Barbershop,Intersection,Discount Store,Mexican Restaurant,Supermarket
224,77221,Houston,29.83399,-95.434241,0,1,0,Pizza Place,Spa,Gas Station,Bank,Park,Salon / Barbershop,Intersection,Discount Store,Mexican Restaurant,Supermarket
229,77222,Houston,29.83399,-95.434241,0,1,0,Pizza Place,Spa,Gas Station,Bank,Park,Salon / Barbershop,Intersection,Discount Store,Mexican Restaurant,Supermarket
231,77235,Houston,29.83399,-95.434241,0,1,0,Pizza Place,Spa,Gas Station,Bank,Park,Salon / Barbershop,Intersection,Discount Store,Mexican Restaurant,Supermarket
232,77281,Houston,29.83399,-95.434241,0,1,0,Pizza Place,Spa,Gas Station,Bank,Park,Salon / Barbershop,Intersection,Discount Store,Mexican Restaurant,Supermarket
236,77266,Houston,29.83399,-95.434241,0,1,0,Pizza Place,Spa,Gas Station,Bank,Park,Salon / Barbershop,Intersection,Discount Store,Mexican Restaurant,Supermarket
237,77242,Houston,29.83399,-95.434241,0,1,0,Pizza Place,Spa,Gas Station,Bank,Park,Salon / Barbershop,Intersection,Discount Store,Mexican Restaurant,Supermarket
241,77236,Houston,29.83399,-95.434241,0,1,0,Pizza Place,Spa,Gas Station,Bank,Park,Salon / Barbershop,Intersection,Discount Store,Mexican Restaurant,Supermarket
242,77279,Houston,29.83399,-95.434241,0,1,0,Pizza Place,Spa,Gas Station,Bank,Park,Salon / Barbershop,Intersection,Discount Store,Mexican Restaurant,Supermarket
245,77231,Houston,29.83399,-95.434241,0,1,0,Pizza Place,Spa,Gas Station,Bank,Park,Salon / Barbershop,Intersection,Discount Store,Mexican Restaurant,Supermarket
246,77268,Houston,29.83399,-95.434241,0,1,0,Pizza Place,Spa,Gas Station,Bank,Park,Salon / Barbershop,Intersection,Discount Store,Mexican Restaurant,Supermarket
248,77201,Houston,29.83399,-95.434241,0,1,0,Pizza Place,Spa,Gas Station,Bank,Park,Salon / Barbershop,Intersection,Discount Store,Mexican Restaurant,Supermarket
249,77018,Houston,29.825476,-95.42619,0,1,0,Pizza Place,Salon / Barbershop,Spa,Gym,Gas Station,Liquor Store,Bank,Cosmetics Shop,Chinese Restaurant,Pharmacy
250,77237,Houston,29.83399,-95.434241,0,1,0,Pizza Place,Spa,Gas Station,Bank,Park,Salon / Barbershop,Intersection,Discount Store,Mexican Restaurant,Supermarket
253,77270,Houston,29.83399,-95.434241,0,1,0,Pizza Place,Spa,Gas Station,Bank,Park,Salon / Barbershop,Intersection,Discount Store,Mexican Restaurant,Supermarket
258,77249,Houston,29.83399,-95.434241,0,1,0,Pizza Place,Spa,Gas Station,Bank,Park,Salon / Barbershop,Intersection,Discount Store,Mexican Restaurant,Supermarket
259,77298,Houston,29.83399,-95.434241,0,1,0,Pizza Place,Spa,Gas Station,Bank,Park,Salon / Barbershop,Intersection,Discount Store,Mexican Restaurant,Supermarket
264,77225,Houston,29.83399,-95.434241,0,1,0,Pizza Place,Spa,Gas Station,Bank,Park,Salon / Barbershop,Intersection,Discount Store,Mexican Restaurant,Supermarket
267,77219,Houston,29.83399,-95.434241,0,1,0,Pizza Place,Spa,Gas Station,Bank,Park,Salon / Barbershop,Intersection,Discount Store,Mexican Restaurant,Supermarket
269,77258,Houston,29.83399,-95.434241,0,1,0,Pizza Place,Spa,Gas Station,Bank,Park,Salon / Barbershop,Intersection,Discount Store,Mexican Restaurant,Supermarket
271,77254,Houston,29.83399,-95.434241,0,1,0,Pizza Place,Spa,Gas Station,Bank,Park,Salon / Barbershop,Intersection,Discount Store,Mexican Restaurant,Supermarket
272,77287,Houston,29.83399,-95.434241,0,1,0,Pizza Place,Spa,Gas Station,Bank,Park,Salon / Barbershop,Intersection,Discount Store,Mexican Restaurant,Supermarket
274,77202,Houston,29.83399,-95.434241,0,1,0,Pizza Place,Spa,Gas Station,Bank,Park,Salon / Barbershop,Intersection,Discount Store,Mexican Restaurant,Supermarket
276,77226,Houston,29.83399,-95.434241,0,1,0,Pizza Place,Spa,Gas Station,Bank,Park,Salon / Barbershop,Intersection,Discount Store,Mexican Restaurant,Supermarket
277,77267,Houston,29.83399,-95.434241,0,1,0,Pizza Place,Spa,Gas Station,Bank,Park,Salon / Barbershop,Intersection,Discount Store,Mexican Restaurant,Supermarket
280,77262,Houston,29.83399,-95.434241,0,1,0,Pizza Place,Spa,Gas Station,Bank,Park,Salon / Barbershop,Intersection,Discount Store,Mexican Restaurant,Supermarket
281,77218,Houston,29.83399,-95.434241,0,1,0,Pizza Place,Spa,Gas Station,Bank,Park,Salon / Barbershop,Intersection,Discount Store,Mexican Restaurant,Supermarket
284,77252,Houston,29.83399,-95.434241,0,1,0,Pizza Place,Spa,Gas Station,Bank,Park,Salon / Barbershop,Intersection,Discount Store,Mexican Restaurant,Supermarket
285,77243,Houston,29.83399,-95.434241,0,1,0,Pizza Place,Spa,Gas Station,Bank,Park,Salon / Barbershop,Intersection,Discount Store,Mexican Restaurant,Supermarket
286,77274,Houston,29.83399,-95.434241,0,1,0,Pizza Place,Spa,Gas Station,Bank,Park,Salon / Barbershop,Intersection,Discount Store,Mexican Restaurant,Supermarket
287,77210,Houston,29.83399,-95.434241,0,1,0,Pizza Place,Spa,Gas Station,Bank,Park,Salon / Barbershop,Intersection,Discount Store,Mexican Restaurant,Supermarket
288,77282,Houston,29.83399,-95.434241,0,1,0,Pizza Place,Spa,Gas Station,Bank,Park,Salon / Barbershop,Intersection,Discount Store,Mexican Restaurant,Supermarket
290,77238,Houston,29.83399,-95.434241,0,1,0,Pizza Place,Spa,Gas Station,Bank,Park,Salon / Barbershop,Intersection,Discount Store,Mexican Restaurant,Supermarket
292,77248,Houston,29.83399,-95.434241,0,1,0,Pizza Place,Spa,Gas Station,Bank,Park,Salon / Barbershop,Intersection,Discount Store,Mexican Restaurant,Supermarket
295,77229,Houston,29.83399,-95.434241,0,1,0,Pizza Place,Spa,Gas Station,Bank,Park,Salon / Barbershop,Intersection,Discount Store,Mexican Restaurant,Supermarket
306,77273,Houston,29.83399,-95.434241,0,1,0,Pizza Place,Spa,Gas Station,Bank,Park,Salon / Barbershop,Intersection,Discount Store,Mexican Restaurant,Supermarket
335,78767,Austin,30.222007,-97.896285,0,1,0,Pool,Clothing Store,Spa,Scenic Lookout,Performing Arts Venue,Zoo Exhibit,Farmers Market,Event Service,Event Space,Eye Doctor
92,75240,Dallas,32.938774,-96.78543,0,7,0,Intersection,Business Service,Gym / Fitness Center,Art Gallery,Zoo Exhibit,Flea Market,Eye Doctor,Fabric Shop,Falafel Restaurant,Farm
0,75294,Dallas,32.767268,-96.777626,1,2,3,Restaurant,Pizza Place,Mexican Restaurant,Coffee Shop,Art Gallery,Sandwich Place,Pharmacy,Dog Run,Convenience Store,Steakhouse
2,75374,Dallas,32.767268,-96.777626,1,2,3,Restaurant,Pizza Place,Mexican Restaurant,Coffee Shop,Art Gallery,Sandwich Place,Pharmacy,Dog Run,Convenience Store,Steakhouse
4,75275,Dallas,32.767268,-96.777626,1,2,3,Restaurant,Pizza Place,Mexican Restaurant,Coffee Shop,Art Gallery,Sandwich Place,Pharmacy,Dog Run,Convenience Store,Steakhouse
6,75392,Dallas,32.767268,-96.777626,1,2,3,Restaurant,Pizza Place,Mexican Restaurant,Coffee Shop,Art Gallery,Sandwich Place,Pharmacy,Dog Run,Convenience Store,Steakhouse
7,75315,Dallas,32.767268,-96.777626,1,2,3,Restaurant,Pizza Place,Mexican Restaurant,Coffee Shop,Art Gallery,Sandwich Place,Pharmacy,Dog Run,Convenience Store,Steakhouse
9,75387,Dallas,32.767268,-96.777626,1,2,3,Restaurant,Pizza Place,Mexican Restaurant,Coffee Shop,Art Gallery,Sandwich Place,Pharmacy,Dog Run,Convenience Store,Steakhouse
10,75359,Dallas,32.767268,-96.777626,1,2,3,Restaurant,Pizza Place,Mexican Restaurant,Coffee Shop,Art Gallery,Sandwich Place,Pharmacy,Dog Run,Convenience Store,Steakhouse
11,75262,Dallas,32.767268,-96.777626,1,2,3,Restaurant,Pizza Place,Mexican Restaurant,Coffee Shop,Art Gallery,Sandwich Place,Pharmacy,Dog Run,Convenience Store,Steakhouse
12,75386,Dallas,32.767268,-96.777626,1,2,3,Restaurant,Pizza Place,Mexican Restaurant,Coffee Shop,Art Gallery,Sandwich Place,Pharmacy,Dog Run,Convenience Store,Steakhouse
13,75355,Dallas,32.767268,-96.777626,1,2,3,Restaurant,Pizza Place,Mexican Restaurant,Coffee Shop,Art Gallery,Sandwich Place,Pharmacy,Dog Run,Convenience Store,Steakhouse
14,75389,Dallas,32.767268,-96.777626,1,2,3,Restaurant,Pizza Place,Mexican Restaurant,Coffee Shop,Art Gallery,Sandwich Place,Pharmacy,Dog Run,Convenience Store,Steakhouse
15,75356,Dallas,32.767268,-96.777626,1,2,3,Restaurant,Pizza Place,Mexican Restaurant,Coffee Shop,Art Gallery,Sandwich Place,Pharmacy,Dog Run,Convenience Store,Steakhouse
19,75368,Dallas,32.767268,-96.777626,1,2,3,Restaurant,Pizza Place,Mexican Restaurant,Coffee Shop,Art Gallery,Sandwich Place,Pharmacy,Dog Run,Convenience Store,Steakhouse
23,75382,Dallas,32.767268,-96.777626,1,2,3,Restaurant,Pizza Place,Mexican Restaurant,Coffee Shop,Art Gallery,Sandwich Place,Pharmacy,Dog Run,Convenience Store,Steakhouse
24,75373,Dallas,32.767268,-96.777626,1,2,3,Restaurant,Pizza Place,Mexican Restaurant,Coffee Shop,Art Gallery,Sandwich Place,Pharmacy,Dog Run,Convenience Store,Steakhouse
25,75379,Dallas,32.767268,-96.777626,1,2,3,Restaurant,Pizza Place,Mexican Restaurant,Coffee Shop,Art Gallery,Sandwich Place,Pharmacy,Dog Run,Convenience Store,Steakhouse
29,75363,Dallas,32.767268,-96.777626,1,2,3,Restaurant,Pizza Place,Mexican Restaurant,Coffee Shop,Art Gallery,Sandwich Place,Pharmacy,Dog Run,Convenience Store,Steakhouse
30,75393,Dallas,32.767268,-96.777626,1,2,3,Restaurant,Pizza Place,Mexican Restaurant,Coffee Shop,Art Gallery,Sandwich Place,Pharmacy,Dog Run,Convenience Store,Steakhouse
32,75326,Dallas,32.767268,-96.777626,1,2,3,Restaurant,Pizza Place,Mexican Restaurant,Coffee Shop,Art Gallery,Sandwich Place,Pharmacy,Dog Run,Convenience Store,Steakhouse
34,75242,Dallas,32.767268,-96.777626,1,2,3,Restaurant,Pizza Place,Mexican Restaurant,Coffee Shop,Art Gallery,Sandwich Place,Pharmacy,Dog Run,Convenience Store,Steakhouse
35,75250,Dallas,32.767268,-96.777626,1,2,3,Restaurant,Pizza Place,Mexican Restaurant,Coffee Shop,Art Gallery,Sandwich Place,Pharmacy,Dog Run,Convenience Store,Steakhouse
38,75263,Dallas,32.767268,-96.777626,1,2,3,Restaurant,Pizza Place,Mexican Restaurant,Coffee Shop,Art Gallery,Sandwich Place,Pharmacy,Dog Run,Convenience Store,Steakhouse
39,75285,Dallas,32.767268,-96.777626,1,2,3,Restaurant,Pizza Place,Mexican Restaurant,Coffee Shop,Art Gallery,Sandwich Place,Pharmacy,Dog Run,Convenience Store,Steakhouse
42,75336,Dallas,32.767268,-96.777626,1,2,3,Restaurant,Pizza Place,Mexican Restaurant,Coffee Shop,Art Gallery,Sandwich Place,Pharmacy,Dog Run,Convenience Store,Steakhouse
44,75354,Dallas,32.767268,-96.777626,1,2,3,Restaurant,Pizza Place,Mexican Restaurant,Coffee Shop,Art Gallery,Sandwich Place,Pharmacy,Dog Run,Convenience Store,Steakhouse
45,75396,Dallas,32.767268,-96.777626,1,2,3,Restaurant,Pizza Place,Mexican Restaurant,Coffee Shop,Art Gallery,Sandwich Place,Pharmacy,Dog Run,Convenience Store,Steakhouse
46,75370,Dallas,32.767268,-96.777626,1,2,3,Restaurant,Pizza Place,Mexican Restaurant,Coffee Shop,Art Gallery,Sandwich Place,Pharmacy,Dog Run,Convenience Store,Steakhouse
47,75371,Dallas,32.767268,-96.777626,1,2,3,Restaurant,Pizza Place,Mexican Restaurant,Coffee Shop,Art Gallery,Sandwich Place,Pharmacy,Dog Run,Convenience Store,Steakhouse
48,75381,Dallas,32.767268,-96.777626,1,2,3,Restaurant,Pizza Place,Mexican Restaurant,Coffee Shop,Art Gallery,Sandwich Place,Pharmacy,Dog Run,Convenience Store,Steakhouse
49,75388,Dallas,32.767268,-96.777626,1,2,3,Restaurant,Pizza Place,Mexican Restaurant,Coffee Shop,Art Gallery,Sandwich Place,Pharmacy,Dog Run,Convenience Store,Steakhouse
51,75303,Dallas,32.767268,-96.777626,1,2,3,Restaurant,Pizza Place,Mexican Restaurant,Coffee Shop,Art Gallery,Sandwich Place,Pharmacy,Dog Run,Convenience Store,Steakhouse
53,75286,Dallas,32.767268,-96.777626,1,2,3,Restaurant,Pizza Place,Mexican Restaurant,Coffee Shop,Art Gallery,Sandwich Place,Pharmacy,Dog Run,Convenience Store,Steakhouse
60,75353,Dallas,32.767268,-96.777626,1,2,3,Restaurant,Pizza Place,Mexican Restaurant,Coffee Shop,Art Gallery,Sandwich Place,Pharmacy,Dog Run,Convenience Store,Steakhouse
61,75264,Dallas,32.767268,-96.777626,1,2,3,Restaurant,Pizza Place,Mexican Restaurant,Coffee Shop,Art Gallery,Sandwich Place,Pharmacy,Dog Run,Convenience Store,Steakhouse
63,75301,Dallas,32.767268,-96.777626,1,2,3,Restaurant,Pizza Place,Mexican Restaurant,Coffee Shop,Art Gallery,Sandwich Place,Pharmacy,Dog Run,Convenience Store,Steakhouse
66,75364,Dallas,32.767268,-96.777626,1,2,3,Restaurant,Pizza Place,Mexican Restaurant,Coffee Shop,Art Gallery,Sandwich Place,Pharmacy,Dog Run,Convenience Store,Steakhouse
69,75398,Dallas,32.767268,-96.777626,1,2,3,Restaurant,Pizza Place,Mexican Restaurant,Coffee Shop,Art Gallery,Sandwich Place,Pharmacy,Dog Run,Convenience Store,Steakhouse
70,75357,Dallas,32.767268,-96.777626,1,2,3,Restaurant,Pizza Place,Mexican Restaurant,Coffee Shop,Art Gallery,Sandwich Place,Pharmacy,Dog Run,Convenience Store,Steakhouse
72,75239,Dallas,32.767268,-96.777626,1,2,3,Restaurant,Pizza Place,Mexican Restaurant,Coffee Shop,Art Gallery,Sandwich Place,Pharmacy,Dog Run,Convenience Store,Steakhouse
73,75222,Dallas,32.767268,-96.777626,1,2,3,Restaurant,Pizza Place,Mexican Restaurant,Coffee Shop,Art Gallery,Sandwich Place,Pharmacy,Dog Run,Convenience Store,Steakhouse
74,75390,Dallas,32.767268,-96.777626,1,2,3,Restaurant,Pizza Place,Mexican Restaurant,Coffee Shop,Art Gallery,Sandwich Place,Pharmacy,Dog Run,Convenience Store,Steakhouse
75,75260,Dallas,32.767268,-96.777626,1,2,3,Restaurant,Pizza Place,Mexican Restaurant,Coffee Shop,Art Gallery,Sandwich Place,Pharmacy,Dog Run,Convenience Store,Steakhouse
77,75397,Dallas,32.767268,-96.777626,1,2,3,Restaurant,Pizza Place,Mexican Restaurant,Coffee Shop,Art Gallery,Sandwich Place,Pharmacy,Dog Run,Convenience Store,Steakhouse
80,75261,Dallas,32.767268,-96.777626,1,2,3,Restaurant,Pizza Place,Mexican Restaurant,Coffee Shop,Art Gallery,Sandwich Place,Pharmacy,Dog Run,Convenience Store,Steakhouse
83,75372,Dallas,32.767268,-96.777626,1,2,3,Restaurant,Pizza Place,Mexican Restaurant,Coffee Shop,Art Gallery,Sandwich Place,Pharmacy,Dog Run,Convenience Store,Steakhouse
84,75395,Dallas,32.767268,-96.777626,1,2,3,Restaurant,Pizza Place,Mexican Restaurant,Coffee Shop,Art Gallery,Sandwich Place,Pharmacy,Dog Run,Convenience Store,Steakhouse
85,75391,Dallas,32.767268,-96.777626,1,2,3,Restaurant,Pizza Place,Mexican Restaurant,Coffee Shop,Art Gallery,Sandwich Place,Pharmacy,Dog Run,Convenience Store,Steakhouse
87,75266,Dallas,32.767268,-96.777626,1,2,3,Restaurant,Pizza Place,Mexican Restaurant,Coffee Shop,Art Gallery,Sandwich Place,Pharmacy,Dog Run,Convenience Store,Steakhouse
88,75323,Dallas,32.767268,-96.777626,1,2,3,Restaurant,Pizza Place,Mexican Restaurant,Coffee Shop,Art Gallery,Sandwich Place,Pharmacy,Dog Run,Convenience Store,Steakhouse
90,75376,Dallas,32.767268,-96.777626,1,2,3,Restaurant,Pizza Place,Mexican Restaurant,Coffee Shop,Art Gallery,Sandwich Place,Pharmacy,Dog Run,Convenience Store,Steakhouse
91,75283,Dallas,32.767268,-96.777626,1,2,3,Restaurant,Pizza Place,Mexican Restaurant,Coffee Shop,Art Gallery,Sandwich Place,Pharmacy,Dog Run,Convenience Store,Steakhouse
94,75360,Dallas,32.767268,-96.777626,1,2,3,Restaurant,Pizza Place,Mexican Restaurant,Coffee Shop,Art Gallery,Sandwich Place,Pharmacy,Dog Run,Convenience Store,Steakhouse
96,75350,Dallas,32.767268,-96.777626,1,2,3,Restaurant,Pizza Place,Mexican Restaurant,Coffee Shop,Art Gallery,Sandwich Place,Pharmacy,Dog Run,Convenience Store,Steakhouse
97,75342,Dallas,32.767268,-96.777626,1,2,3,Restaurant,Pizza Place,Mexican Restaurant,Coffee Shop,Art Gallery,Sandwich Place,Pharmacy,Dog Run,Convenience Store,Steakhouse
98,75346,Dallas,32.767268,-96.777626,1,2,3,Restaurant,Pizza Place,Mexican Restaurant,Coffee Shop,Art Gallery,Sandwich Place,Pharmacy,Dog Run,Convenience Store,Steakhouse
99,75378,Dallas,32.767268,-96.777626,1,2,3,Restaurant,Pizza Place,Mexican Restaurant,Coffee Shop,Art Gallery,Sandwich Place,Pharmacy,Dog Run,Convenience Store,Steakhouse
102,75284,Dallas,32.767268,-96.777626,1,2,3,Restaurant,Pizza Place,Mexican Restaurant,Coffee Shop,Art Gallery,Sandwich Place,Pharmacy,Dog Run,Convenience Store,Steakhouse
103,75367,Dallas,32.767268,-96.777626,1,2,3,Restaurant,Pizza Place,Mexican Restaurant,Coffee Shop,Art Gallery,Sandwich Place,Pharmacy,Dog Run,Convenience Store,Steakhouse
105,75265,Dallas,32.767268,-96.777626,1,2,3,Restaurant,Pizza Place,Mexican Restaurant,Coffee Shop,Art Gallery,Sandwich Place,Pharmacy,Dog Run,Convenience Store,Steakhouse
106,75267,Dallas,32.767268,-96.777626,1,2,3,Restaurant,Pizza Place,Mexican Restaurant,Coffee Shop,Art Gallery,Sandwich Place,Pharmacy,Dog Run,Convenience Store,Steakhouse
108,75258,Dallas,32.767268,-96.777626,1,2,3,Restaurant,Pizza Place,Mexican Restaurant,Coffee Shop,Art Gallery,Sandwich Place,Pharmacy,Dog Run,Convenience Store,Steakhouse
110,75313,Dallas,32.767268,-96.777626,1,2,3,Restaurant,Pizza Place,Mexican Restaurant,Coffee Shop,Art Gallery,Sandwich Place,Pharmacy,Dog Run,Convenience Store,Steakhouse
111,75310,Dallas,32.767268,-96.777626,1,2,3,Restaurant,Pizza Place,Mexican Restaurant,Coffee Shop,Art Gallery,Sandwich Place,Pharmacy,Dog Run,Convenience Store,Steakhouse
112,75295,Dallas,32.767268,-96.777626,1,2,3,Restaurant,Pizza Place,Mexican Restaurant,Coffee Shop,Art Gallery,Sandwich Place,Pharmacy,Dog Run,Convenience Store,Steakhouse
114,75320,Dallas,32.767268,-96.777626,1,2,3,Restaurant,Pizza Place,Mexican Restaurant,Coffee Shop,Art Gallery,Sandwich Place,Pharmacy,Dog Run,Convenience Store,Steakhouse
115,75380,Dallas,32.767268,-96.777626,1,2,3,Restaurant,Pizza Place,Mexican Restaurant,Coffee Shop,Art Gallery,Sandwich Place,Pharmacy,Dog Run,Convenience Store,Steakhouse
116,75277,Dallas,32.767268,-96.777626,1,2,3,Restaurant,Pizza Place,Mexican Restaurant,Coffee Shop,Art Gallery,Sandwich Place,Pharmacy,Dog Run,Convenience Store,Steakhouse
119,75339,Dallas,32.767268,-96.777626,1,2,3,Restaurant,Pizza Place,Mexican Restaurant,Coffee Shop,Art Gallery,Sandwich Place,Pharmacy,Dog Run,Convenience Store,Steakhouse
120,75394,Dallas,32.767268,-96.777626,1,2,3,Restaurant,Pizza Place,Mexican Restaurant,Coffee Shop,Art Gallery,Sandwich Place,Pharmacy,Dog Run,Convenience Store,Steakhouse
121,75312,Dallas,32.767268,-96.777626,1,2,3,Restaurant,Pizza Place,Mexican Restaurant,Coffee Shop,Art Gallery,Sandwich Place,Pharmacy,Dog Run,Convenience Store,Steakhouse
142,77088,Houston,29.879213,-95.45028,1,2,3,Thai Restaurant,Art Gallery,Shop & Service,Convenience Store,Dog Run,Event Space,Eye Doctor,Fabric Shop,Falafel Restaurant,Farm
227,77094,Houston,29.770722,-95.6988,2,3,1,Park,Ethiopian Restaurant,Event Space,Eye Doctor,Fabric Shop,Falafel Restaurant,Farm,Farmers Market,Fast Food Restaurant,Field
238,77073,Houston,30.008745,-95.41273,2,3,1,Park,Ethiopian Restaurant,Event Space,Eye Doctor,Fabric Shop,Falafel Restaurant,Farm,Farmers Market,Fast Food Restaurant,Field
56,75245,Dallas,32.922499,-96.535191,3,5,1,Park,Housing Development,Flea Market,Event Space,Eye Doctor,Fabric Shop,Falafel Restaurant,Farm,Farmers Market,Fast Food Restaurant
310,78762,Austin,30.326374,-97.771258,3,5,1,Park,Mountain,Dive Bar,Boat or Ferry,Scenic Lookout,Eye Doctor,Fabric Shop,Falafel Restaurant,Farm,Farmers Market
315,78774,Austin,30.326374,-97.771258,3,5,1,Park,Mountain,Dive Bar,Boat or Ferry,Scenic Lookout,Eye Doctor,Fabric Shop,Falafel Restaurant,Farm,Farmers Market
318,73301,Austin,30.326374,-97.771258,3,5,1,Park,Mountain,Dive Bar,Boat or Ferry,Scenic Lookout,Eye Doctor,Fabric Shop,Falafel Restaurant,Farm,Farmers Market
326,78786,Austin,30.326374,-97.771258,3,5,1,Park,Mountain,Dive Bar,Boat or Ferry,Scenic Lookout,Eye Doctor,Fabric Shop,Falafel Restaurant,Farm,Farmers Market
327,78780,Austin,30.326374,-97.771258,3,5,1,Park,Mountain,Dive Bar,Boat or Ferry,Scenic Lookout,Eye Doctor,Fabric Shop,Falafel Restaurant,Farm,Farmers Market
329,78771,Austin,30.326374,-97.771258,3,5,1,Park,Mountain,Dive Bar,Boat or Ferry,Scenic Lookout,Eye Doctor,Fabric Shop,Falafel Restaurant,Farm,Farmers Market
330,78781,Austin,30.326374,-97.771258,3,5,1,Park,Mountain,Dive Bar,Boat or Ferry,Scenic Lookout,Eye Doctor,Fabric Shop,Falafel Restaurant,Farm,Farmers Market
337,78785,Austin,30.326374,-97.771258,3,5,1,Park,Mountain,Dive Bar,Boat or Ferry,Scenic Lookout,Eye Doctor,Fabric Shop,Falafel Restaurant,Farm,Farmers Market
339,73344,Austin,30.326374,-97.771258,3,5,1,Park,Mountain,Dive Bar,Boat or Ferry,Scenic Lookout,Eye Doctor,Fabric Shop,Falafel Restaurant,Farm,Farmers Market
340,78760,Austin,30.326374,-97.771258,3,5,1,Park,Mountain,Dive Bar,Boat or Ferry,Scenic Lookout,Eye Doctor,Fabric Shop,Falafel Restaurant,Farm,Farmers Market
341,78782,Austin,30.326374,-97.771258,3,5,1,Park,Mountain,Dive Bar,Boat or Ferry,Scenic Lookout,Eye Doctor,Fabric Shop,Falafel Restaurant,Farm,Farmers Market
342,78718,Austin,30.326374,-97.771258,3,5,1,Park,Mountain,Dive Bar,Boat or Ferry,Scenic Lookout,Eye Doctor,Fabric Shop,Falafel Restaurant,Farm,Farmers Market
344,78783,Austin,30.326374,-97.771258,3,5,1,Park,Mountain,Dive Bar,Boat or Ferry,Scenic Lookout,Eye Doctor,Fabric Shop,Falafel Restaurant,Farm,Farmers Market
348,78708,Austin,30.326374,-97.771258,3,5,1,Park,Mountain,Dive Bar,Boat or Ferry,Scenic Lookout,Eye Doctor,Fabric Shop,Falafel Restaurant,Farm,Farmers Market
349,78789,Austin,30.326374,-97.771258,3,5,1,Park,Mountain,Dive Bar,Boat or Ferry,Scenic Lookout,Eye Doctor,Fabric Shop,Falafel Restaurant,Farm,Farmers Market
350,78773,Austin,30.326374,-97.771258,3,5,1,Park,Mountain,Dive Bar,Boat or Ferry,Scenic Lookout,Eye Doctor,Fabric Shop,Falafel Restaurant,Farm,Farmers Market
352,78787,Austin,30.326374,-97.771258,3,5,1,Park,Mountain,Dive Bar,Boat or Ferry,Scenic Lookout,Eye Doctor,Fabric Shop,Falafel Restaurant,Farm,Farmers Market
354,78768,Austin,30.326374,-97.771258,3,5,1,Park,Mountain,Dive Bar,Boat or Ferry,Scenic Lookout,Eye Doctor,Fabric Shop,Falafel Restaurant,Farm,Farmers Market
355,78709,Austin,30.326374,-97.771258,3,5,1,Park,Mountain,Dive Bar,Boat or Ferry,Scenic Lookout,Eye Doctor,Fabric Shop,Falafel Restaurant,Farm,Farmers Market
359,78720,Austin,30.326374,-97.771258,3,5,1,Park,Mountain,Dive Bar,Boat or Ferry,Scenic Lookout,Eye Doctor,Fabric Shop,Falafel Restaurant,Farm,Farmers Market
365,78772,Austin,30.326374,-97.771258,3,5,1,Park,Mountain,Dive Bar,Boat or Ferry,Scenic Lookout,Eye Doctor,Fabric Shop,Falafel Restaurant,Farm,Farmers Market
368,78769,Austin,30.326374,-97.771258,3,5,1,Park,Mountain,Dive Bar,Boat or Ferry,Scenic Lookout,Eye Doctor,Fabric Shop,Falafel Restaurant,Farm,Farmers Market
372,78765,Austin,30.326374,-97.771258,3,5,1,Park,Mountain,Dive Bar,Boat or Ferry,Scenic Lookout,Eye Doctor,Fabric Shop,Falafel Restaurant,Farm,Farmers Market
373,78779,Austin,30.326374,-97.771258,3,5,1,Park,Mountain,Dive Bar,Boat or Ferry,Scenic Lookout,Eye Doctor,Fabric Shop,Falafel Restaurant,Farm,Farmers Market
374,78761,Austin,30.326374,-97.771258,3,5,1,Park,Mountain,Dive Bar,Boat or Ferry,Scenic Lookout,Eye Doctor,Fabric Shop,Falafel Restaurant,Farm,Farmers Market
380,78711,Austin,30.326374,-97.771258,3,5,1,Park,Mountain,Dive Bar,Boat or Ferry,Scenic Lookout,Eye Doctor,Fabric Shop,Falafel Restaurant,Farm,Farmers Market
382,78788,Austin,30.326374,-97.771258,3,5,1,Park,Mountain,Dive Bar,Boat or Ferry,Scenic Lookout,Eye Doctor,Fabric Shop,Falafel Restaurant,Farm,Farmers Market
386,78778,Austin,30.326374,-97.771258,3,5,1,Park,Mountain,Dive Bar,Boat or Ferry,Scenic Lookout,Eye Doctor,Fabric Shop,Falafel Restaurant,Farm,Farmers Market
387,78755,Austin,30.326374,-97.771258,3,5,1,Park,Mountain,Dive Bar,Boat or Ferry,Scenic Lookout,Eye Doctor,Fabric Shop,Falafel Restaurant,Farm,Farmers Market
312,78715,Austin,30.450088,-97.486509,4,8,4,Construction & Landscaping,Zoo Exhibit,Flea Market,Event Space,Eye Doctor,Fabric Shop,Falafel Restaurant,Farm,Farmers Market,Fast Food Restaurant
52,75241,Dallas,32.669383,-96.77439,5,5,1,Park,Convenience Store,Flea Market,Event Space,Eye Doctor,Fabric Shop,Falafel Restaurant,Farm,Farmers Market,Fast Food Restaurant
379,78719,Austin,30.163458,-97.67711,6,4,2,Smoke Shop,Zoo Exhibit,Financial or Legal Service,Event Space,Eye Doctor,Fabric Shop,Falafel Restaurant,Farm,Farmers Market,Fast Food Restaurant
26,75214,Dallas,32.825628,-96.74872,7,7,2,Shop & Service,Men's Store,Cosmetics Shop,Bar,Spa,Food,Eye Doctor,Fabric Shop,Falafel Restaurant,Farm
76,75229,Dallas,32.895376,-96.85985,7,7,2,Home Service,Park,Recreation Center,Pop-Up Shop,Insurance Office,Gym / Fitness Center,Department Store,Nightlife Spot,Zoo Exhibit,Fast Food Restaurant
128,77034,Houston,29.63643,-95.21789,7,7,2,Taco Place,Sports Bar,Park,Home Service,Zoo Exhibit,Event Space,Eye Doctor,Fabric Shop,Falafel Restaurant,Farm
197,77041,Houston,29.85873,-95.57243,7,7,2,Miscellaneous Shop,Construction & Landscaping,Donut Shop,Restaurant,Home Service,Zoo Exhibit,Eye Doctor,Fabric Shop,Falafel Restaurant,Farm
333,78732,Austin,30.382724,-97.89459,7,7,2,Cosmetics Shop,Music Store,Park,Trail,Sushi Restaurant,Zoo Exhibit,Field,Event Space,Eye Doctor,Fabric Shop
384,78750,Austin,30.438933,-97.80383,7,7,2,Pizza Place,Yoga Studio,Bagel Shop,Tennis Court,Bank,Martial Arts Dojo,Park,Sandwich Place,Donut Shop,Noodle House
20,75215,Dallas,32.76103,-96.77035,7,2,3,Recreation Center,Gym Pool,Coffee Shop,Restaurant,Pizza Place,Zoo Exhibit,Fast Food Restaurant,Event Service,Event Space,Eye Doctor
270,77012,Houston,29.719778,-95.27906,8,9,2,Mexican Restaurant,Sports Bar,Harbor / Marina,Zoo Exhibit,Event Space,Eye Doctor,Fabric Shop,Falafel Restaurant,Farm,Farmers Market
5,75202,Dallas,32.77988,-96.80502,9,7,2,Hotel,History Museum,Plaza,Coffee Shop,New American Restaurant,Bakery,Steakhouse,French Restaurant,Mexican Restaurant,Scenic Lookout
16,75270,Dallas,32.78133,-96.80198,9,7,2,Hotel,Coffee Shop,Steakhouse,Plaza,Cocktail Bar,Bakery,New American Restaurant,Bar,Park,Mexican Restaurant
22,75251,Dallas,32.919104,-96.77497,9,7,2,Hotel,Bank,Park,Residential Building (Apartment / Condo),Coffee Shop,Fast Food Restaurant,Burger Joint,Pharmacy,Warehouse Store,Gym
36,75247,Dallas,32.817978,-96.87928,9,7,2,Hotel,American Restaurant,Fried Chicken Joint,Bakery,Pizza Place,Restaurant,Coffee Shop,Event Service,Fast Food Restaurant,Sporting Goods Shop
132,77042,Houston,29.741565,-95.55996,9,7,2,Hotel,Sandwich Place,Pizza Place,Bakery,Gas Station,Rental Car Location,Mexican Restaurant,Sporting Goods Shop,Grocery Store,Donut Shop
198,77002,Houston,29.755578,-95.36531,9,7,2,Hotel,Burger Joint,Sandwich Place,Steakhouse,Italian Restaurant,Coffee Shop,Lounge,Pizza Place,French Restaurant,Thai Restaurant
247,77010,Houston,29.754728,-95.36216,9,7,2,Hotel,Lounge,Steakhouse,Mexican Restaurant,Burger Joint,Bar,Food Court,Beer Bar,Gastropub,Market
255,77014,Houston,29.979063,-95.47294,9,7,2,BBQ Joint,Hotel,Gym,Seafood Restaurant,Golf Course,Home Service,Bakery,Convenience Store,Food & Drink Shop,Food Court
307,78701,Austin,30.27127,-97.74103,9,7,2,Hotel,Cocktail Bar,Coffee Shop,Movie Theater,Capitol Building,Bar,Lounge,Juice Bar,Steakhouse,Burger Joint
321,78712,Austin,30.285207,-97.735394,9,7,2,Hotel,History Museum,Fast Food Restaurant,Sandwich Place,Public Art,Pool,Student Center,Indian Restaurant,Art Museum,Football Stadium
323,78752,Austin,30.332506,-97.70571,9,7,2,Hotel,Mexican Restaurant,Wings Joint,Park,Chinese Restaurant,Movie Theater,Hookah Bar,Men's Store,Korean Restaurant,Bank
154,77013,Houston,29.78146,-95.24289,9,9,2,Hotel,Mexican Restaurant,Seafood Restaurant,Park,Mobile Phone Shop,Fast Food Restaurant,Discount Store,Snack Place,Motel,Electronics Store
192,77032,Houston,29.944922,-95.34152,9,9,2,Hotel,Mexican Restaurant,Fast Food Restaurant,Sandwich Place,Fried Chicken Joint,Dive Bar,Motel,Cajun / Creole Restaurant,Gas Station,Smoke Shop
283,77060,Houston,29.933367,-95.39916,9,9,2,Hotel,Mexican Restaurant,Fried Chicken Joint,Pizza Place,Fast Food Restaurant,Shipping Store,Business Service,Nail Salon,New American Restaurant,Cajun / Creole Restaurant
161,77049,Houston,29.832668,-95.1742,10,9,2,German Restaurant,Movie Theater,Fast Food Restaurant,Surf Spot,Flea Market,Eye Doctor,Fabric Shop,Falafel Restaurant,Farm,Farmers Market
18,75234,Dallas,32.925975,-96.88322,11,7,2,Soccer Field,Pizza Place,Breakfast Spot,Mexican Restaurant,Baseball Field,Park,Bank,Asian Restaurant,Fried Chicken Joint,Garden
65,75254,Dallas,32.946069,-96.794496,11,7,2,Pizza Place,Department Store,Sports Bar,Dry Cleaner,Mexican Restaurant,Bubble Tea Shop,Fast Food Restaurant,Nail Salon,Fabric Shop,Shipping Store
107,75225,Dallas,32.862876,-96.7904,11,7,2,Park,Cosmetics Shop,Nail Salon,Seafood Restaurant,Tennis Court,Bakery,Electronics Store,Sandwich Place,Donut Shop,Gym
143,77066,Houston,29.959439,-95.49694,11,7,2,Park,Food Truck,Mexican Restaurant,Baseball Field,Spa,Insurance Office,Pharmacy,Department Store,Video Store,Farm
219,77096,Houston,29.674336,-95.48123,11,7,2,Cosmetics Shop,Café,Pizza Place,Grocery Store,Salon / Barbershop,Gym / Fitness Center,Gym,BBQ Joint,Bakery,Food & Drink Shop
251,77045,Houston,29.629111,-95.43841,11,7,2,Moving Target,Cosmetics Shop,Sports Bar,Food Truck,Gas Station,Art Gallery,Flea Market,Eye Doctor,Fabric Shop,Falafel Restaurant
260,77292,Houston,29.744341,-95.332598,11,7,2,Video Store,Dive Bar,Fried Chicken Joint,Discount Store,Music Store,Snack Place,Mexican Restaurant,Supermarket,Gas Station,Bar
313,78745,Austin,30.207559,-97.79575,11,7,2,Convenience Store,Pizza Place,Food Truck,Cosmetics Shop,Health & Beauty Service,Food & Drink Shop,Boxing Gym,Seafood Restaurant,Bakery,Sandwich Place
347,78723,Austin,30.306507,-97.68651,11,7,2,Gym / Fitness Center,Food Truck,Cosmetics Shop,Restaurant,Pizza Place,Grocery Store,Disc Golf,Donut Shop,Mobile Phone Shop,Discount Store
353,78716,Austin,30.316223,-97.85877,11,7,2,Pizza Place,Gym,Convenience Store,Pet Store,Health & Beauty Service,Gas Station,Lawyer,Doctor's Office,BBQ Joint,Massage Studio
356,78724,Austin,30.294148,-97.62863,11,7,2,General Entertainment,Nightclub,Grocery Store,Market,Athletics & Sports,Farmers Market,Flea Market,Gas Station,Moving Target,Food & Drink Shop
371,78736,Austin,30.245558,-97.94177,11,7,2,Market,Souvenir Shop,Zoo Exhibit,Financial or Legal Service,Event Space,Eye Doctor,Fabric Shop,Falafel Restaurant,Farm,Farmers Market
1,75255,Dallas,32.669783,-96.614921,11,9,2,Home Service,Advertising Agency,Deli / Bodega,Mexican Restaurant,Flea Market,Eye Doctor,Fabric Shop,Falafel Restaurant,Farm,Farmers Market
8,75228,Dallas,32.825227,-96.67955,11,9,2,Business Service,Convenience Store,Sandwich Place,Discount Store,Flower Shop,Gym / Fitness Center,Dessert Shop,Grocery Store,Recreation Center,Locksmith
17,75220,Dallas,32.867977,-96.86306,11,9,2,Convenience Store,Pizza Place,Mexican Restaurant,Grocery Store,Wings Joint,Mobile Phone Shop,Bank,Seafood Restaurant,Latin American Restaurant,Shoe Store
21,75231,Dallas,32.874317,-96.74764,11,9,2,Baseball Field,Pizza Place,Video Game Store,Tennis Court,Chinese Restaurant,Movie Theater,Coffee Shop,Fast Food Restaurant,Smoke Shop,Golf Driving Range
28,75246,Dallas,32.791878,-96.77365,11,9,2,Mexican Restaurant,Sandwich Place,Pizza Place,Dive Bar,Fast Food Restaurant,BBQ Joint,Bar,Gym / Fitness Center,Taco Place,Discount Store
37,75207,Dallas,32.78643,-96.81992,11,9,2,Antique Shop,Pizza Place,Fast Food Restaurant,Mexican Restaurant,Art Gallery,Brewery,Convenience Store,Furniture / Home Store,Gym / Fitness Center,New American Restaurant
40,75223,Dallas,32.792879,-96.74918,11,9,2,Mexican Restaurant,Convenience Store,Liquor Store,Fast Food Restaurant,Fried Chicken Joint,Bakery,Sandwich Place,Tennis Court,Grocery Store,Theater
50,75212,Dallas,32.78238,-96.86945,11,9,2,Discount Store,Business Service,Thrift / Vintage Store,Mexican Restaurant,Pizza Place,Locksmith,Convenience Store,Food Court,Field,Eye Doctor
81,75211,Dallas,32.736931,-96.88253,11,9,2,Liquor Store,Mexican Restaurant,Convenience Store,Video Store,Fast Food Restaurant,Taco Place,Burger Joint,BBQ Joint,Grocery Store,Supermarket
89,75232,Dallas,32.664034,-96.83886,11,9,2,Pizza Place,Discount Store,Sandwich Place,Pawn Shop,Donut Shop,Pharmacy,Department Store,Grocery Store,Convenience Store,Fried Chicken Joint
113,75233,Dallas,32.704398,-96.87222,11,9,2,Mexican Restaurant,Storage Facility,Rental Car Location,Taco Place,Zoo Exhibit,Eye Doctor,Fabric Shop,Falafel Restaurant,Farm,Farmers Market
124,77015,Houston,29.778526,-95.18118,11,9,2,Mexican Restaurant,Fast Food Restaurant,Seafood Restaurant,Bakery,Paper / Office Supplies Store,Burger Joint,Moving Target,Breakfast Spot,Mobile Phone Shop,Skating Rink
134,77037,Houston,29.885451,-95.39552,11,9,2,Flea Market,Lighting Store,Food Truck,Convenience Store,Grocery Store,Discount Store,Financial or Legal Service,Eye Doctor,Fabric Shop,Falafel Restaurant
135,77093,Houston,29.862024,-95.33967,11,9,2,Pizza Place,Brewery,Supermarket,Mexican Restaurant,Mobile Phone Shop,Discount Store,Grocery Store,Food Truck,Financial or Legal Service,Eye Doctor
167,77023,Houston,29.725961,-95.3227,11,9,2,Taco Place,Paintball Field,Comfort Food Restaurant,Baseball Field,Fast Food Restaurant,Latin American Restaurant,Mexican Restaurant,Bar,Gaming Cafe,Convenience Store
168,77087,Houston,29.686579,-95.30386,11,9,2,Mexican Restaurant,Bakery,Construction & Landscaping,Liquor Store,Football Stadium,Fast Food Restaurant,Dog Run,Athletics & Sports,Rental Service,Rental Car Location
186,77076,Houston,29.858525,-95.38178,11,9,2,Seafood Restaurant,Food Truck,Ice Cream Shop,Home Service,Casino,Taco Place,Mexican Restaurant,Fast Food Restaurant,Pizza Place,Pharmacy
194,77092,Houston,29.833326,-95.47644,11,9,2,Mexican Restaurant,Fast Food Restaurant,Hotel,Cosmetics Shop,Grocery Store,Bakery,Bank,Golf Course,Gas Station,Burger Joint
204,77053,Houston,29.596666,-95.45981,11,9,2,Mexican Restaurant,Pizza Place,Grocery Store,Discount Store,Fast Food Restaurant,Gas Station,Check Cashing Service,Shipping Store,Liquor Store,Seafood Restaurant
209,77089,Houston,29.589831,-95.22251,11,9,2,Vietnamese Restaurant,Grocery Store,Cajun / Creole Restaurant,Convenience Store,Donut Shop,Pizza Place,Shop & Service,Salon / Barbershop,Discount Store,Event Service
212,77061,Houston,29.66028,-95.28446,11,9,2,Airport Terminal,Rental Car Location,Convenience Store,Bus Station,Mexican Restaurant,Gift Shop,Donut Shop,Fast Food Restaurant,Smoke Shop,Locksmith
228,77055,Houston,29.798877,-95.49629,11,9,2,Pizza Place,Mexican Restaurant,Discount Store,Bakery,Financial or Legal Service,Taco Place,Bar,Bank,Sandwich Place,BBQ Joint
235,77587,South Houston,29.66223,-95.23106,11,9,2,Mexican Restaurant,Baseball Field,Home Service,Fast Food Restaurant,Gym,Pizza Place,Thrift / Vintage Store,American Restaurant,Park,Food
239,77009,Houston,29.79326,-95.36735,11,9,2,Mexican Restaurant,Pizza Place,Sandwich Place,Hotel,Concert Hall,Bar,Gym / Fitness Center,Tex-Mex Restaurant,Bank,Coffee Shop
240,77075,Houston,29.620881,-95.26018,11,9,2,Mexican Restaurant,Ice Cream Shop,Grocery Store,Construction & Landscaping,Burger Joint,IT Services,Insurance Office,Fountain,Event Service,Event Space
252,77020,Houston,29.775927,-95.31836,11,9,2,Sandwich Place,Park,Intersection,Mexican Restaurant,Fried Chicken Joint,Pharmacy,Skate Park,Fast Food Restaurant,Gas Station,Discount Store
256,77038,Houston,29.917814,-95.44138,11,9,2,Bubble Tea Shop,Dessert Shop,Kids Store,Park,Mobile Phone Shop,Discount Store,Seafood Restaurant,Mexican Restaurant,Convenience Store,Bakery
273,77017,Houston,29.687829,-95.25478,11,9,2,Baseball Field,Discount Store,Grocery Store,Outdoors & Recreation,Casino,Video Store,Zoo Exhibit,Fabric Shop,Falafel Restaurant,Farm
291,77086,Houston,29.920981,-95.49556,11,9,2,Vietnamese Restaurant,Fast Food Restaurant,Pizza Place,Gas Station,Mexican Restaurant,Discount Store,Bus Station,Pawn Shop,Bar,Grocery Store
294,77000,Houston,29.711257,-95.304936,11,9,2,Discount Store,Mexican Restaurant,Fast Food Restaurant,ATM,Seafood Restaurant,Grocery Store,Clothing Store,Sandwich Place,Chinese Restaurant,Optical Shop
300,77039,Houston,29.909123,-95.33683,11,9,2,Pizza Place,Discount Store,Fried Chicken Joint,Mobile Phone Shop,Gas Station,Mexican Restaurant,Fast Food Restaurant,Taco Place,Donut Shop,Pharmacy
301,77052,Houston,29.676829,-95.177587,11,9,2,Mexican Restaurant,Convenience Store,Liquor Store,Ice Cream Shop,Food,Baseball Field,Fast Food Restaurant,Pet Store,Event Space,Food & Drink Shop
303,77080,Houston,29.816866,-95.52309,11,9,2,Vietnamese Restaurant,Grocery Store,Discount Store,Pharmacy,Sandwich Place,Burger Joint,Ice Cream Shop,Fried Chicken Joint,Mexican Restaurant,Taco Place
304,77081,Houston,29.70828,-95.48361,11,9,2,Mexican Restaurant,Fried Chicken Joint,Fast Food Restaurant,Pizza Place,Latin American Restaurant,Taco Place,Coffee Shop,Ice Cream Shop,Sandwich Place,Burger Joint
311,78763,Austin,30.335398,-97.559807,11,9,2,Mexican Restaurant,Pizza Place,Discount Store,Liquor Store,Restaurant,Gas Station,Video Store,Grocery Store,Burger Joint,Fast Food Restaurant
334,78741,Austin,30.231252,-97.716,11,9,2,Cosmetics Shop,Pizza Place,Pharmacy,Liquor Store,Mexican Restaurant,Gym / Fitness Center,Video Store,Food Truck,Grocery Store,Bank
345,78753,Austin,30.374654,-97.67621,11,9,2,Mexican Restaurant,Burger Joint,Furniture / Home Store,Rental Car Location,Bank,Discount Store,Grocery Store,Gym,Park,Casino
357,78764,Austin,30.445502,-97.659533,11,9,2,Convenience Store,Pizza Place,Cosmetics Shop,Mobile Phone Shop,Discount Store,Liquor Store,Fast Food Restaurant,Mexican Restaurant,Gym / Fitness Center,Steakhouse
358,78758,Austin,30.384204,-97.70392,11,9,2,Brewery,Gas Station,Home Service,Middle Eastern Restaurant,Mexican Restaurant,Pharmacy,Gym / Fitness Center,Fast Food Restaurant,Sushi Restaurant,Business Service
376,78972,Austin,30.31536,-97.663293,11,9,2,Discount Store,Cosmetics Shop,Athletics & Sports,Pizza Place,Department Store,Pharmacy,Chinese Restaurant,Fast Food Restaurant,Basketball Court,Baseball Field
389,78731,Austin,30.344305,-97.7638,11,9,2,Business Service,Gas Station,Shipping Store,Electronics Store,Cosmetics Shop,Spa,Convenience Store,Nature Preserve,Assisted Living,Mexican Restaurant
3,75252,Dallas,32.998132,-96.79088,12,7,2,Mexican Restaurant,Sandwich Place,Coffee Shop,Bank,Nail Salon,Gym,Convenience Store,Mediterranean Restaurant,Bagel Shop,Fast Food Restaurant
54,75244,Dallas,32.922624,-96.83616,12,7,2,Furniture / Home Store,Gym / Fitness Center,Fast Food Restaurant,Electronics Store,Sandwich Place,Hotel,Golf Course,Auto Dealership,Restaurant,Outlet Store
57,75204,Dallas,32.800333,-96.78952,12,7,2,Coffee Shop,American Restaurant,Yoga Studio,Mexican Restaurant,Pharmacy,Bar,Wine Bar,Park,Restaurant,Sports Bar
58,75226,Dallas,32.783978,-96.77662,12,7,2,Bar,Coffee Shop,Dive Bar,American Restaurant,Pizza Place,BBQ Joint,Mexican Restaurant,Brewery,Burger Joint,Cocktail Bar
62,75205,Dallas,32.836094,-96.79524,12,7,2,Boutique,Women's Store,Bakery,Shopping Mall,Clothing Store,Grocery Store,Coffee Shop,Bank,Golf Course,Gym
67,75221,Dallas,32.814728,-96.787725,12,7,2,Furniture / Home Store,Pizza Place,New American Restaurant,Restaurant,Taco Place,Spa,Mexican Restaurant,Gift Shop,Sushi Restaurant,Sandwich Place
68,75237,Dallas,32.666984,-96.87633,12,7,2,Fried Chicken Joint,Nail Salon,Pizza Place,Supplement Shop,Automotive Shop,BBQ Joint,Coffee Shop,Food & Drink Shop,Sandwich Place,Chinese Restaurant
71,75219,Dallas,32.812462,-96.81412,12,7,2,Gay Bar,Nail Salon,Mexican Restaurant,Yoga Studio,Bar,Diner,Coffee Shop,French Restaurant,Fried Chicken Joint,Thai Restaurant
78,75206,Dallas,32.826128,-96.7712,12,7,2,Pizza Place,Burger Joint,Mexican Restaurant,Sushi Restaurant,Deli / Bodega,Salon / Barbershop,Bakery,Latin American Restaurant,Bar,Café
79,75235,Dallas,32.828128,-96.84612,12,7,2,Rental Car Location,Fast Food Restaurant,American Restaurant,Burger Joint,Hotel,Gym,Gas Station,Taco Place,Park,BBQ Joint
82,75218,Dallas,32.842726,-96.69937,12,7,2,Park,Wings Joint,Pharmacy,Video Store,Mobile Phone Shop,Burger Joint,Convenience Store,Flower Shop,Bar,Taco Place
93,75209,Dallas,32.845978,-96.82552,12,7,2,Mexican Restaurant,Bakery,American Restaurant,Dive Bar,Nail Salon,Salon / Barbershop,Spa,Coffee Shop,Furniture / Home Store,Smoothie Shop
95,75201,Dallas,32.787629,-96.79941,12,7,2,Steakhouse,Food Truck,Mexican Restaurant,Performing Arts Venue,Hotel,Restaurant,Japanese Restaurant,American Restaurant,New American Restaurant,Theater
109,75208,Dallas,32.751464,-96.83864,12,7,2,Mexican Restaurant,Italian Restaurant,Taco Place,Chocolate Shop,Dessert Shop,Gym,Ice Cream Shop,American Restaurant,Coffee Shop,Golf Course
123,77046,Houston,29.733181,-95.43131,12,7,2,Italian Restaurant,Burger Joint,Bakery,Mexican Restaurant,Coffee Shop,Chinese Restaurant,Café,Seafood Restaurant,Bar,Sushi Restaurant
126,77072,Houston,29.700898,-95.59002,12,7,2,Vietnamese Restaurant,Massage Studio,Asian Restaurant,Noodle House,Grocery Store,Pet Store,Gas Station,Liquor Store,Restaurant,BBQ Joint
129,77003,Houston,29.749278,-95.34741,12,7,2,Bar,Pizza Place,Brewery,Food Truck,Beer Garden,Soccer Stadium,Mexican Restaurant,Convenience Store,Coffee Shop,Burger Joint
133,77091,Houston,29.852975,-95.43586,12,7,2,Moving Target,Burger Joint,Concert Hall,Rest Area,Arts & Entertainment,Zoo Exhibit,Flea Market,Fabric Shop,Falafel Restaurant,Farm
138,77004,Houston,29.728779,-95.3657,12,7,2,Bar,Bagel Shop,Nightclub,Coffee Shop,Bakery,Moving Target,Theater,Lounge,College Rec Center,Fast Food Restaurant
140,77030,Houston,29.704584,-95.40466,12,7,2,Food Service,Sandwich Place,Burger Joint,Coffee Shop,Pizza Place,American Restaurant,Fast Food Restaurant,Pharmacy,Bank,Gym / Fitness Center
141,77005,Houston,29.717529,-95.42821,12,7,2,Pharmacy,Restaurant,Park,Kids Store,Theater,Burger Joint,Café,Cafeteria,Boutique,Gym
145,77059,Houston,29.601776,-95.11734,12,7,2,Business Service,Home Service,Asian Restaurant,Mobile Phone Shop,Pet Store,Sandwich Place,American Restaurant,Smoothie Shop,Convenience Store,Pizza Place
157,77057,Houston,29.745129,-95.49131,12,7,2,Sushi Restaurant,Steakhouse,Seafood Restaurant,Italian Restaurant,Burger Joint,Cosmetics Shop,Cajun / Creole Restaurant,Chinese Restaurant,Mexican Restaurant,Food Truck
163,77056,Houston,29.747328,-95.46931,12,7,2,American Restaurant,New American Restaurant,Italian Restaurant,French Restaurant,Seafood Restaurant,Burger Joint,Japanese Restaurant,Department Store,Steakhouse,Pizza Place
202,77064,Houston,29.923638,-95.55919,12,7,2,Credit Union,Pizza Place,Furniture / Home Store,Taco Place,Gift Shop,Grocery Store,Sandwich Place,Liquor Store,Construction & Landscaping,Hotel
203,77044,Houston,29.88277,-95.16782,12,7,2,Burger Joint,Music Venue,Bar,Optical Shop,Dive Bar,Zoo Exhibit,Flea Market,Falafel Restaurant,Farm,Farmers Market
207,77054,Houston,29.683865,-95.39772,12,7,2,Rental Car Location,Pizza Place,Gas Station,Indian Restaurant,BBQ Joint,Grocery Store,General Entertainment,Fast Food Restaurant,Auto Garage,Gym
210,77063,Houston,29.734379,-95.52269,12,7,2,Mexican Restaurant,Mobile Phone Shop,Mediterranean Restaurant,Pizza Place,Sandwich Place,Rental Car Location,Coffee Shop,Spa,Ethiopian Restaurant,Bakery
215,77051,Houston,29.66543,-95.36871,12,7,2,Food Truck,Burger Joint,Seafood Restaurant,Food,Park,Southern / Soul Food Restaurant,Mobile Phone Shop,Comfort Food Restaurant,Comedy Club,Restaurant
221,77019,Houston,29.752528,-95.39923,12,7,2,Italian Restaurant,Pub,Pizza Place,Coffee Shop,Gym,Gym / Fitness Center,Bar,Cosmetics Shop,Department Store,New American Restaurant
230,77098,Houston,29.735529,-95.41405,12,7,2,Pizza Place,Seafood Restaurant,Pet Store,Sushi Restaurant,Italian Restaurant,Mexican Restaurant,Grocery Store,Dessert Shop,New American Restaurant,Beer Bar
234,77006,Houston,29.741878,-95.38944,12,7,2,Coffee Shop,Bar,Italian Restaurant,Breakfast Spot,Mediterranean Restaurant,Wine Bar,Japanese Restaurant,Pizza Place,Cajun / Creole Restaurant,Burger Joint
243,77077,Houston,29.750897,-95.61255,12,7,2,Bar,Pizza Place,Restaurant,Discount Store,Fast Food Restaurant,Skating Rink,Grocery Store,Salon / Barbershop,Park,Supermarket
244,77079,Houston,29.773018,-95.60125,12,7,2,Pizza Place,Bakery,Fast Food Restaurant,Burger Joint,Mexican Restaurant,Fried Chicken Joint,Restaurant,Supermarket,Breakfast Spot,Liquor Store
254,77007,Houston,29.772627,-95.40319,12,7,2,Mexican Restaurant,Bar,Wings Joint,Taco Place,Sushi Restaurant,Pizza Place,Mediterranean Restaurant,Sports Bar,Bakery,Gym
261,77043,Houston,29.802473,-95.5618,12,7,2,Construction & Landscaping,Bar,IT Services,Breakfast Spot,Financial or Legal Service,Paper / Office Supplies Store,American Restaurant,BBQ Joint,Dessert Shop,Fabric Shop
263,77036,Houston,29.70053,-95.53514,12,7,2,Food,Vietnamese Restaurant,Golf Course,Japanese Restaurant,Smoke Shop,Salvadoran Restaurant,Bakery,Grocery Store,Chinese Restaurant,Thai Restaurant
265,77058,Houston,29.55283,-95.10265,12,7,2,Science Museum,Sushi Restaurant,Italian Restaurant,Vietnamese Restaurant,Bakery,Hotel,Coffee Shop,Pharmacy,Mexican Restaurant,Fast Food Restaurant
279,77090,Houston,30.012711,-95.45132,12,7,2,Chinese Restaurant,Pharmacy,Pizza Place,Sandwich Place,Vietnamese Restaurant,Mexican Restaurant,Bakery,Jewelry Store,Record Shop,Breakfast Spot
282,77027,Houston,29.739029,-95.44364,12,7,2,Furniture / Home Store,New American Restaurant,Sushi Restaurant,Cosmetics Shop,Clothing Store,Chinese Restaurant,French Restaurant,Lingerie Store,Bistro,Steakhouse
289,77008,Houston,29.798777,-95.40951,12,7,2,Ice Cream Shop,Juice Bar,Bar,Thrift / Vintage Store,Italian Restaurant,Mexican Restaurant,Restaurant,Indian Chinese Restaurant,Taco Place,Record Shop
308,78705,Austin,30.292424,-97.73856,12,7,2,Burger Joint,Sandwich Place,Food Truck,Pizza Place,Dessert Shop,Music Venue,Hookah Bar,Sports Bar,Taco Place,Rock Club
309,78727,Austin,30.425652,-97.71419,12,7,2,Mediterranean Restaurant,Gym,Construction & Landscaping,Thai Restaurant,Food Truck,Bakery,Bank,Health & Beauty Service,Pharmacy,Coffee Shop
317,78748,Austin,30.17202,-97.82265,12,7,2,Pizza Place,Video Store,Beer Garden,Martial Arts Dojo,Athletics & Sports,Gym / Fitness Center,Discount Store,Sandwich Place,Fast Food Restaurant,Pharmacy
322,78751,Austin,30.310707,-97.723,12,7,2,Coffee Shop,Italian Restaurant,Pizza Place,Breakfast Spot,Cheese Shop,Vegetarian / Vegan Restaurant,American Restaurant,Vietnamese Restaurant,Cocktail Bar,Juice Bar
324,78702,Austin,30.265158,-97.71879,12,7,2,Dive Bar,Mexican Restaurant,Coffee Shop,Cocktail Bar,Food Truck,Bar,Pub,Restaurant,Brewery,Pizza Place
325,78742,Austin,30.23358,-97.67831,12,7,2,Brewery,Bar,Dance Studio,Pizza Place,Gas Station,Rock Club,Hardware Store,Financial or Legal Service,Eye Doctor,Fabric Shop
332,78728,Austin,30.451803,-97.67989,12,7,2,Chinese Restaurant,Dessert Shop,Lake,Mediterranean Restaurant,Park,Mexican Restaurant,Coffee Shop,Fast Food Restaurant,Furniture / Home Store,Gym
346,78733,Austin,30.329704,-97.8751,12,7,2,Disc Golf,Coffee Shop,Construction & Landscaping,American Restaurant,Bakery,Flea Market,Eye Doctor,Fabric Shop,Falafel Restaurant,Farm
360,78704,Austin,30.246309,-97.76087,12,7,2,Coffee Shop,Food Truck,Tapas Restaurant,Ice Cream Shop,Restaurant,Thai Restaurant,Taco Place,Breakfast Spot,Mexican Restaurant,Bakery
362,78734,Austin,30.378675,-97.95028,12,7,2,Ice Cream Shop,Restaurant,Mexican Restaurant,Ski Shop,Bar,Gym / Fitness Center,Electronics Store,Athletics & Sports,Gym,Dessert Shop
367,78722,Austin,30.289307,-97.71659,12,7,2,Sandwich Place,Taco Place,Theater,Mexican Restaurant,American Restaurant,Food Truck,Bar,Coffee Shop,Rental Car Location,Café
370,78756,Austin,30.320206,-97.74177,12,7,2,Mexican Restaurant,Coffee Shop,Bakery,Taco Place,Thrift / Vintage Store,Sandwich Place,Yoga Studio,Burger Joint,Italian Restaurant,Frozen Yogurt Shop
375,78746,Austin,30.287739,-97.8022,12,7,2,Sandwich Place,Martial Arts Dojo,Pilates Studio,Liquor Store,Juice Bar,Gas Station,Pharmacy,Coffee Shop,Bank,Food & Drink Shop
378,78766,Austin,30.442202,-97.62333,12,7,2,Bar,Playground,Coffee Shop,Flower Shop,Gas Station,Garden,Mexican Restaurant,Smoke Shop,Taco Place,Diner
381,78726,Austin,30.439053,-97.83503,12,7,2,Trail,Moving Target,Construction & Landscaping,Coffee Shop,Home Service,Italian Restaurant,Furniture / Home Store,Gym,Pool,Liquor Store
383,78710,Austin,30.351953,-97.715123,12,7,2,Mexican Restaurant,Music Store,Salad Place,Gym,Rental Car Location,Vietnamese Restaurant,Taco Place,Mobile Phone Shop,Baseball Field,Automotive Shop
385,78757,Austin,30.349455,-97.73328,12,7,2,Furniture / Home Store,Bakery,Taco Place,Park,Mexican Restaurant,Coffee Shop,Burger Joint,Bar,Skating Rink,Lingerie Store
388,78713,Austin,30.468583,-97.843336,12,7,2,Pizza Place,Gym,Concert Hall,Park,Athletics & Sports,Salon / Barbershop,Coffee Shop,Sushi Restaurant,Football Stadium,Bakery
331,78737,Austin,30.19025,-97.95854,13,0,2,Stables,Construction & Landscaping,Business Service,History Museum,Zoo Exhibit,Flea Market,Eye Doctor,Fabric Shop,Falafel Restaurant,Farm
296,77016,Houston,29.857007,-95.30886,14,1,0,Fried Chicken Joint,Park,Clothing Store,Food,Spa,Other Repair Shop,Zoo Exhibit,Fast Food Restaurant,Eye Doctor,Fabric Shop
319,78703,Austin,30.290907,-97.76277,14,7,0,Spa,Yoga Studio,Park,Health Food Store,Bank,Shipping Store,Tanning Salon,Shoe Store,Dry Cleaner,Harbor / Marina
158,77047,Houston,29.616182,-95.37767,14,0,2,Construction & Landscaping,Fast Food Restaurant,Fried Chicken Joint,Park,Hotel,Dog Run,Road,Campground,Zoo Exhibit,Event Space
177,77029,Houston,29.760794,-95.26043,14,0,2,Construction & Landscaping,Food,Platform,Zoo Exhibit,Financial or Legal Service,Event Space,Eye Doctor,Fabric Shop,Falafel Restaurant,Farm
336,78749,Austin,30.216108,-97.85828,14,0,2,Park,Gym,Construction & Landscaping,Pool,Assisted Living,Doctor's Office,Field,Event Space,Eye Doctor,Fabric Shop
64,75230,Dallas,32.901176,-96.79054,14,7,2,Locksmith,Intersection,Baseball Field,Home Service,Paper / Office Supplies Store,Food Service,Food Truck,Event Space,Eye Doctor,Fountain
189,77025,Houston,29.69023,-95.43474,14,7,2,Park,Fried Chicken Joint,Gym,Trail,Gas Station,Bank,Bakery,Burger Joint,Sandwich Place,Lawyer
220,77024,Houston,29.773994,-95.51771,14,7,2,Business Service,Ice Cream Shop,Park,Clothing Store,Coffee Shop,Other Repair Shop,Field,Fabric Shop,Falafel Restaurant,Farm
266,77095,Houston,29.896656,-95.64842,14,7,2,Park,Spa,Business Service,Home Service,Other Great Outdoors,Grocery Store,Mexican Restaurant,Zoo Exhibit,Fast Food Restaurant,Event Space
297,77082,Houston,29.722704,-95.6314,14,7,2,Park,Furniture / Home Store,Playground,Convenience Store,Intersection,Business Service,Cosmetics Shop,Financial or Legal Service,Eye Doctor,Fabric Shop
302,77067,Houston,29.952354,-95.45065,14,7,2,Food,Business Service,Convenience Store,Construction & Landscaping,Vietnamese Restaurant,Gas Station,Home Service,Donut Shop,Flea Market,Fabric Shop
314,78759,Austin,30.406169,-97.75743,14,7,2,Park,Pizza Place,Gym,Gym / Fitness Center,Golf Course,Miscellaneous Shop,Food,Farm,Food Truck,Food Service
316,78729,Austin,30.451348,-97.76588,14,7,2,Park,Gym / Fitness Center,Middle Eastern Restaurant,Playground,Basketball Court,Coffee Shop,Donut Shop,Tennis Court,Intersection,Cosmetics Shop
328,78717,Austin,30.494623,-97.75687,14,7,2,Park,Tennis Court,Outdoor Supply Store,Playground,Home Service,Zoo Exhibit,Fast Food Restaurant,Event Space,Eye Doctor,Fabric Shop
351,78721,Austin,30.272926,-97.68665,14,7,2,Park,Bar,Coffee Shop,Recreation Center,Night Market,Construction & Landscaping,Cajun / Creole Restaurant,Bakery,Zoo Exhibit,Fast Food Restaurant
117,75227,Dallas,32.77003,-96.69,14,9,2,Mexican Restaurant,Arts & Crafts Store,Automotive Shop,Park,Construction & Landscaping,Bakery,Zoo Exhibit,Eye Doctor,Fabric Shop,Falafel Restaurant
101,75236,Dallas,32.685533,-96.91746,14,0,4,Harbor / Marina,Construction & Landscaping,Campground,Zoo Exhibit,Field,Event Space,Eye Doctor,Fabric Shop,Falafel Restaurant,Farm
223,77048,Houston,29.633081,-95.33761,15,6,2,Grocery Store,Discount Store,Clothing Store,Home Service,Zoo Exhibit,Eye Doctor,Fabric Shop,Falafel Restaurant,Farm,Farmers Market
233,77071,Houston,29.647637,-95.51718,15,6,2,Grocery Store,Bakery,Park,Gas Station,Locksmith,Field,Event Space,Eye Doctor,Fabric Shop,Falafel Restaurant
41,75287,Dallas,32.998786,-96.84436,16,7,2,Fried Chicken Joint,Boxing Gym,Sushi Restaurant,Gym / Fitness Center,Lake,Thrift / Vintage Store,Gym,Grocery Store,Bar,General Entertainment
104,75248,Dallas,32.968123,-96.78863,16,7,2,Electronics Store,Pizza Place,Market,Coffee Shop,Sandwich Place,Fast Food Restaurant,Chinese Restaurant,Dessert Shop,Video Store,Bank
176,77070,Houston,29.978801,-95.57655,16,7,2,Fast Food Restaurant,Gym,Video Store,Coffee Shop,Gymnastics Gym,Trail,Bike Trail,Smoothie Shop,Pharmacy,Construction & Landscaping
195,77062,Houston,29.57493,-95.13238,16,7,2,Italian Restaurant,Convenience Store,Science Museum,Coffee Shop,Sandwich Place,Salon / Barbershop,Donut Shop,Fast Food Restaurant,Pizza Place,Martial Arts Dojo
27,75210,Dallas,32.77103,-96.74732,16,9,2,Fried Chicken Joint,Snack Place,Opera House,Thrift / Vintage Store,Music Venue,Recreation Center,Tram Station,Light Rail Station,Fast Food Restaurant,Event Service
31,75216,Dallas,32.710082,-96.7972,16,9,2,Fried Chicken Joint,Grocery Store,Pizza Place,Light Rail Station,Sandwich Place,Fast Food Restaurant,Shoe Store,Pharmacy,BBQ Joint,Discount Store
33,75238,Dallas,32.873926,-96.70922,16,9,2,Fast Food Restaurant,Discount Store,Convenience Store,Pizza Place,Roller Rink,Thrift / Vintage Store,Thai Restaurant,Donut Shop,Bank,Electronics Store
43,75217,Dallas,32.72238,-96.67582,16,9,2,Home Service,Insurance Office,Convenience Store,Nightclub,Fast Food Restaurant,Zoo Exhibit,Financial or Legal Service,Event Space,Eye Doctor,Fabric Shop
55,75253,Dallas,32.679924,-96.60367,16,9,2,Fast Food Restaurant,Ice Cream Shop,Convenience Store,Auto Garage,Mexican Restaurant,Big Box Store,Discount Store,Recreation Center,Food Service,Financial or Legal Service
59,75065,Lake Dallas,33.12635,-97.02525,16,9,2,Gas Station,Food Truck,Sandwich Place,Cosmetics Shop,Stadium,Convenience Store,Basketball Court,Italian Restaurant,Fast Food Restaurant,Discount Store
86,75203,Dallas,32.745831,-96.80672,16,9,2,Light Rail Station,Fast Food Restaurant,Gift Shop,Zoo Exhibit,Dry Cleaner,Park,Paper / Office Supplies Store,Business Service,Bus Stop,Bus Station
118,75243,Dallas,32.912225,-96.73688,16,9,2,Fast Food Restaurant,Convenience Store,Burger Joint,Hotel,Sushi Restaurant,Sandwich Place,Video Store,Fried Chicken Joint,Gas Station,Ethiopian Restaurant
122,75224,Dallas,32.716065,-96.83987,16,9,2,Fast Food Restaurant,Fried Chicken Joint,Home Service,Bank,Grocery Store,Shopping Mall,Sandwich Place,Mobile Phone Shop,Health Food Store,Yoga Studio
139,77074,Houston,29.689781,-95.51161,16,9,2,Convenience Store,Discount Store,Fried Chicken Joint,College Theater,Storage Facility,Café,Mobile Phone Shop,Fast Food Restaurant,Caribbean Restaurant,Basketball Court
152,77001,Houston,29.813142,-95.309789,16,9,2,Gas Station,Department Store,Chinese Restaurant,Park,Fast Food Restaurant,Sandwich Place,Discount Store,Grocery Store,Burger Joint,Fried Chicken Joint
172,77084,Houston,29.839155,-95.66391,16,9,2,Fast Food Restaurant,Furniture / Home Store,Intersection,Convenience Store,Mexican Restaurant,Zoo Exhibit,Financial or Legal Service,Eye Doctor,Fabric Shop,Falafel Restaurant
182,77083,Houston,29.691714,-95.64978,16,9,2,Fast Food Restaurant,Indian Restaurant,Halal Restaurant,Sandwich Place,Gas Station,Thrift / Vintage Store,Pakistani Restaurant,Flea Market,Storage Facility,Mobile Phone Shop
184,77033,Houston,29.66913,-95.33834,16,9,2,Discount Store,Gas Station,Auto Workshop,Coffee Shop,Fast Food Restaurant,Pharmacy,Flower Shop,Grocery Store,Cosmetics Shop,Intersection
199,77085,Houston,29.621746,-95.48695,16,9,2,Clothing Store,Thrift / Vintage Store,Discount Store,Ice Cream Shop,Hardware Store,Fast Food Restaurant,Event Space,Eye Doctor,Fabric Shop,Falafel Restaurant
225,77022,Houston,29.825176,-95.37798,16,9,2,Fast Food Restaurant,Mobile Phone Shop,Shoe Store,Discount Store,Breakfast Spot,Department Store,Chinese Restaurant,Pizza Place,French Restaurant,Latin American Restaurant
226,77031,Houston,29.654132,-95.54311,16,9,2,Fried Chicken Joint,Convenience Store,Gas Station,Camera Store,Arts & Crafts Store,Hobby Shop,Business Service,Pizza Place,Taco Place,Motel
262,77028,Houston,29.827315,-95.28631,16,9,2,Fried Chicken Joint,Burger Joint,Convenience Store,American Restaurant,Food,Flea Market,Eye Doctor,Fabric Shop,Falafel Restaurant,Farm
268,77099,Houston,29.668489,-95.5869,16,9,2,Fast Food Restaurant,Taco Place,Pizza Place,Pet Store,Discount Store,Supplement Shop,Pakistani Restaurant,Department Store,Furniture / Home Store,Food
275,77065,Houston,29.927675,-95.60547,16,9,2,Fast Food Restaurant,Spa,Restaurant,Big Box Store,Furniture / Home Store,Mobile Phone Shop,Shipping Store,Sandwich Place,Mexican Restaurant,Pharmacy
278,77021,Houston,29.695879,-95.3573,16,9,2,Pizza Place,Fast Food Restaurant,Pharmacy,Fried Chicken Joint,BBQ Joint,Mobile Phone Shop,Pawn Shop,Shipping Store,Sandwich Place,Bar
293,77026,Houston,29.79437,-95.33395,16,9,2,Fried Chicken Joint,Gas Station,Bank,Fast Food Restaurant,Mexican Restaurant,Nightclub,Discount Store,Food & Drink Shop,Financial or Legal Service,Fountain
298,77078,Houston,29.849424,-95.25951,16,9,2,Fast Food Restaurant,Fried Chicken Joint,Grocery Store,Donut Shop,Food & Drink Shop,Bus Station,Storage Facility,Food,Mobile Phone Shop,Seafood Restaurant
305,77011,Houston,29.742378,-95.30726,16,9,2,Fast Food Restaurant,Mexican Restaurant,Fried Chicken Joint,Snack Place,Seafood Restaurant,Burger Joint,Pizza Place,Chinese Restaurant,Baseball Field,Bank
343,78744,Austin,30.188377,-97.74038,16,9,2,Discount Store,Intersection,Video Store,Fried Chicken Joint,Food Truck,Recreation Center,Golf Course,Fast Food Restaurant,Mexican Restaurant,Zoo Exhibit
136,77068,Houston,30.007886,-95.48532,17,7,2,Golf Course,BBQ Joint,Lake,Arts & Crafts Store,Eye Doctor,Fabric Shop,Falafel Restaurant,Farm,Farmers Market,Fast Food Restaurant
214,77069,Houston,29.984672,-95.52887,17,7,2,Bar,Golf Course,Home Service,Zoo Exhibit,Financial or Legal Service,Eye Doctor,Fabric Shop,Falafel Restaurant,Farm,Farmers Market
361,78738,Austin,30.340111,-97.98869,17,7,2,Golf Course,Park,Gymnastics Gym,Lawyer,Business Service,Fast Food Restaurant,Event Service,Event Space,Eye Doctor,Fabric Shop
369,78747,Austin,30.132855,-97.76187,18,5,1,Park,Athletics & Sports,Financial or Legal Service,Event Space,Eye Doctor,Fabric Shop,Falafel Restaurant,Farm,Farmers Market,Fast Food Restaurant
100,75249,Dallas,32.639661,-96.95317,19,7,2,Movie Theater,Park,Recreation Center,Trail,Playground,Nature Preserve,Field,Event Space,Eye Doctor,Fabric Shop
320,78754,Austin,30.354234,-97.64679,19,7,2,Nature Preserve,Pool,Playground,Zoo Exhibit,Financial or Legal Service,Event Space,Eye Doctor,Fabric Shop,Falafel Restaurant,Farm
338,78735,Austin,30.250761,-97.84469,19,7,2,Pool,Playground,Gym,Golf Driving Range,Electronics Store,Construction & Landscaping,Performing Arts Venue,Farm,Dog Run,Fast Food Restaurant
363,78739,Austin,30.17207,-97.87284,19,7,2,Park,Music Venue,Pool,Trail,Zoo Exhibit,Field,Event Space,Eye Doctor,Fabric Shop,Falafel Restaurant
257,77050,Houston,29.896156,-95.28687,,,,,,,,,,,,,
299,77209,Houston,29.612816,-95.158517,,,,,,,,,,,,,
364,78725,Austin,30.231583,-97.60992,,,,,,,,,,,,,
366,78714,Austin,30.335787,-97.443751,,,,,,,,,,,,,
377,78730,Austin,30.359935,-97.83125,,,,,,,,,,,,,
